INMARSAT 4-F2 (SOUTHPA*)
1 28899U 05044A   26203.92787701 -.00000260  00000+0  00000+0 0  9990
2 28899   5.1415  43.6878 0003000  62.0566 312.4526  1.00271809 75887
GSAT-8 (GAGAN/PRN 127)  
1 37605U 11022A   26203.91089939  .00000087  00000+0  00000+0 0  9991
2 37605   2.2208  81.3897 0002526 150.2244  92.0344  1.00272249 53575
LUCH 5A (SDCM/PRN 140)  
1 37951U 11074B   26203.44787147 -.00000052  00000+0  00000+0 0  9999
2 37951   8.8408  73.2870 0002888  61.8063 133.3744  1.00274767 53403
SES-5 (EGNOS/PRN 136)   
1 38652U 12036A   26203.82913271  .00000038  00000+0  00000+0 0  9991
2 38652   0.0439 322.0344 0002078 154.0940 127.9020  1.00271768 44810
GSAT-10 (GAGAN/PRN 128) 
1 38779U 12051B   26203.91591694 -.00000161  00000+0  00000+0 0  9997
2 38779   0.0722 262.8120 0007652 193.4088 257.1775  1.00272452 50452
LUCH 5B (SDCM/PRN 125)  
1 38977U 12061A   26203.92290471 -.00000142  00000+0  00000+0 0  9997
2 38977  10.5592  49.5225 0003849 142.0155  65.0607  1.00270871 49965
ASTRA 5B (EGNOS/PRN 123)
1 39617U 14011B   26203.95491421  .00000141  00000+0  00000+0 0  9995
2 39617   0.0619 313.1984 0002222 175.9032 178.8019  1.00272560 45026
LUCH 5V (SDCM/PRN 141)  
1 39727U 14023A   26203.99466627 -.00000269  00000+0  00000+0 0  9996
2 39727   5.2193  69.3715 0002356  78.8221 245.3638  1.00271608 44717
GSAT-15 (GAGAN/PRN 139) 
1 41028U 15065A   26203.91799696 -.00000253  00000+0  00000+0 0  9990
2 41028   0.0985 263.1230 0003597 179.9683 281.5488  1.00271364 39151
EUTELSAT 117 WEST B (W*)
1 41589U 16038B   26203.66239767 -.00000008  00000+0  00000+0 0  9991
2 41589   0.0038 118.4581 0000176  68.0841 235.3336  1.00272816 37012
SES-15 (WAAS/PRN 133)   
1 42709U 17026A   26203.75461186  .00000064  00000+0  00000+0 0  9997
2 42709   0.0281 320.3404 0000584 131.6505 350.9981  1.00268217  7794
QZS-2 (QZSS/PRN 194)    
1 42738U 17028A   26203.44061192 -.00000120  00000+0  00000+0 0  9994
2 42738  39.3767 242.6339 0756704 269.6876  88.9804  1.00274888  7982
QZS-3 (QZSS/PRN 199)    
1 42917U 17048A   26203.92458366 -.00000344  00000+0  00000+0 0  9999
2 42917   0.0589 202.6865 0002863 284.5158 273.3201  1.00269077 32610
QZS-4 (QZSS/PRN 195)    
1 42965U 17062A   26202.25726799 -.00000358  00000+0  00000+0 0  9996
2 42965  40.0879 343.0509 0746939 268.6822 279.3148  1.00289434 32147
BEIDOU-3 G1 (PRN 130)   
1 43683U 18085A   26203.93117036 -.00000107  00000+0  00000+0 0  9996
2 43683   2.9568  96.4078 0008338 357.3819 342.0984  1.00273032 28411
EUTELSAT 5 WEST B (EGN*)
1 44624U 19067A   26203.89834095 -.00000038  00000+0  00000+0 0  9992
2 44624   0.0727 326.9758 0003281 152.7469 139.3042  1.00272092 24793
BEIDOU-3 G2 (PRN 144)   
1 45344U 20017A   26203.91531028 -.00000138  00000+0  00000+0 0  9993
2 45344   2.9351  47.8455 0002104  58.0055 244.3472  1.00272671 23619
BEIDOU-3 G3 (PRN 143)   
1 45807U 20040A   26203.92137698 -.00000352  00000+0  00000+0 0  9997
2 45807   2.5331  67.5034 0002281 316.6925 358.7118  1.00273231 22422
GALAXY 30 (WAAS/PRN 135)
1 46114U 20056C   26203.73794698  .00000041  00000+0  00000+0 0  9998
2 46114   0.0146  67.1236 0002244  50.6582 323.3470  1.00271378 21646
QZS-1R (QZSS/PRN 196)   
1 49336U 21096A   26200.56101544 -.00000322  00000+0  00000+0 0  9995
2 49336  37.5263  79.1015 0755512 272.3091 279.1178  1.00244085 17338
QZS-6 (QZSS/PRN 200)    
1 62876U 25023A   26203.91353763 -.00000229  00000+0  00000+0 0  9993
2 62876   0.0181  52.9322 0002062  62.4265 244.6632  1.00273907  5303
